{"type": "FeatureCollection", "features": [{"type": "Feature", "properties": {"nome": "Floresta Nacional de Pacotuba", "fonte": "ICMBio - FLONA_Pacotuba.kmz (flona_pacotuba.zip)", "baixado_em": "2026-10-03"}, "geometry": {"type": "Polygon", "coordinates": [[[-41.302849, -20.73313], [-41.303661, -20.734674], [-41.303113, -20.734684], [-41.302242, -20.7347], [-41.301453, -20.735048], [-41.301919, -20.735671], [-41.302062, -20.735862], [-41.302337, -20.736597], [-41.302298, -20.73663], [-41.301383, -20.737414], [-41.30181, -20.737732], [-41.301637, -20.738282], [-41.301285, -20.737861], [-41.300122, -20.737302], [-41.298981, -20.737658], [-41.298945, -20.737809], [-41.298237, -20.738442], [-41.29774, -20.738592], [-41.297406, -20.738693], [-41.295687, -20.738697], [-41.295635, -20.739096], [-41.295644, -20.739174], [-41.296098, -20.739852], [-41.296772, -20.739539], [-41.296894, -20.739803], [-41.297582, -20.73949], [-41.298493, -20.739456], [-41.298763, -20.73944], [-41.299144, -20.739296], [-41.29953, -20.739016], [-41.300074, -20.738804], [-41.301189, -20.738591], [-41.301377, -20.738475], [-41.302252, -20.739452], [-41.302388, -20.739404], [-41.302569, -20.739204], [-41.302539, -20.73885], [-41.303561, -20.738957], [-41.303931, -20.737218], [-41.30331, -20.73721], [-41.303721, -20.73587], [-41.304189, -20.735756], [-41.305182, -20.737454], [-41.307854, -20.742055], [-41.308414, -20.742985], [-41.307521, -20.743565], [-41.303716, -20.744285], [-41.303533, -20.744379], [-41.302914, -20.745269], [-41.302122, -20.746438], [-41.302004, -20.746692], [-41.302662, -20.747791], [-41.302929, -20.74826], [-41.303964, -20.749879], [-41.30397, -20.750109], [-41.303799, -20.750427], [-41.302976, -20.751269], [-41.302298, -20.752127], [-41.302113, -20.752331], [-41.301747, -20.752807], [-41.301701, -20.752827], [-41.301534, -20.752877], [-41.301469, -20.752906], [-41.301388, -20.752907], [-41.301267, -20.752971], [-41.301232, -20.753014], [-41.301146, -20.753025], [-41.301074, -20.753031], [-41.300989, -20.753066], [-41.300888, -20.7531], [-41.300756, -20.75314], [-41.30061, -20.753209], [-41.300545, -20.753282], [-41.300496, -20.753397], [-41.300442, -20.753503], [-41.300375, -20.753499], [-41.300289, -20.753495], [-41.300199, -20.753564], [-41.300088, -20.753651], [-41.300034, -20.753738], [-41.30004, -20.753852], [-41.300032, -20.753948], [-41.299982, -20.75403], [-41.299887, -20.754098], [-41.299766, -20.754195], [-41.299493, -20.754397], [-41.299392, -20.754446], [-41.299321, -20.754466], [-41.29922, -20.754496], [-41.299109, -20.754555], [-41.298998, -20.754614], [-41.298866, -20.754625], [-41.298744, -20.754569], [-41.298682, -20.754532], [-41.298561, -20.7546], [-41.298501, -20.754678], [-41.298473, -20.754841], [-41.298526, -20.754983], [-41.298502, -20.755108], [-41.298342, -20.755179], [-41.298046, -20.75531], [-41.2978, -20.755252], [-41.297608, -20.755368], [-41.297435, -20.75539], [-41.297314, -20.755429], [-41.29711, -20.755394], [-41.296967, -20.755339], [-41.296834, -20.755312], [-41.296742, -20.755236], [-41.296649, -20.755152], [-41.296547, -20.755124], [-41.296394, -20.755098], [-41.296301, -20.755003], [-41.296084, -20.754848], [-41.295934, -20.754813], [-41.296081, -20.753771], [-41.296061, -20.753057], [-41.296172, -20.752691], [-41.295851, -20.752384], [-41.295374, -20.752028], [-41.295233, -20.75154], [-41.295206, -20.750956], [-41.294366, -20.750377], [-41.29372, -20.750139], [-41.29243, -20.750392], [-41.291589, -20.750551], [-41.289957, -20.751063], [-41.288855, -20.751263], [-41.287873, -20.751769], [-41.287683, -20.751664], [-41.287166, -20.748316], [-41.286705, -20.748493], [-41.286212, -20.748337], [-41.285585, -20.747862], [-41.285286, -20.745782], [-41.284221, -20.745724], [-41.284207, -20.746553], [-41.280657, -20.747429], [-41.278546, -20.749168], [-41.278249, -20.749577], [-41.277987, -20.749897], [-41.27782, -20.750154], [-41.277631, -20.750396], [-41.277488, -20.750202], [-41.277173, -20.749777], [-41.276905, -20.749416], [-41.276456, -20.748694], [-41.276294, -20.748119], [-41.27565, -20.748051], [-41.275429, -20.748017], [-41.275308, -20.747458], [-41.274996, -20.746093], [-41.274752, -20.745143], [-41.274424, -20.744086], [-41.274177, -20.743547], [-41.272118, -20.739558], [-41.272333, -20.738332], [-41.272767, -20.736573], [-41.272856, -20.736306], [-41.273154, -20.736023], [-41.273189, -20.735987], [-41.27499, -20.734828], [-41.275078, -20.734605], [-41.277234, -20.735632], [-41.277112, -20.735918], [-41.277384, -20.737755], [-41.277434, -20.73823], [-41.277558, -20.739414], [-41.277132, -20.74086], [-41.276706, -20.7423], [-41.27657, -20.742761], [-41.276606, -20.742876], [-41.27679, -20.743076], [-41.276924, -20.743179], [-41.277308, -20.743211], [-41.277659, -20.743111], [-41.277832, -20.743038], [-41.278097, -20.742974], [-41.278513, -20.742984], [-41.278858, -20.742953], [-41.279379, -20.742949], [-41.279558, -20.743014], [-41.279757, -20.743108], [-41.279888, -20.743205], [-41.279982, -20.743228], [-41.280066, -20.743228], [-41.280321, -20.743002], [-41.280443, -20.742696], [-41.280393, -20.742212], [-41.280316, -20.741843], [-41.280901, -20.741362], [-41.281864, -20.74057], [-41.282394, -20.740134], [-41.282381, -20.739878], [-41.283225, -20.739766], [-41.283872, -20.739112], [-41.284639, -20.739116], [-41.284734, -20.739082], [-41.285113, -20.739086], [-41.286137, -20.739061], [-41.285894, -20.738543], [-41.285636, -20.737578], [-41.285806, -20.737131], [-41.286103, -20.737078], [-41.286693, -20.736576], [-41.28711, -20.737029], [-41.28763, -20.737992], [-41.288119, -20.737677], [-41.288625, -20.737424], [-41.290219, -20.738478], [-41.292632, -20.737242], [-41.295929, -20.735952], [-41.296638, -20.735744], [-41.297012, -20.735504], [-41.297973, -20.734994], [-41.299653, -20.734293], [-41.300023, -20.73415], [-41.30085, -20.733816], [-41.301752, -20.733462], [-41.302849, -20.73313]]]}}]}